#aV2008  5  1  0  0   .00000000      96 DD+AD WGS84 FIT  NGA
## 1477 345600.00000000   900.00000000 54587  .0000000000000
+   31     2  3  4  5  6  7  8  9 10 11 12 13 14 15 16 17 18
+         19 20 21 22 23 24 25 26 27 28 29 30 31 32  0  0  0
+          0  0  0  0  0  0  0  0  0  0  0  0  0  0  0  0  0
+          0  0  0  0  0  0  0  0  0  0  0  0  0  0  0  0  0
+          0  0  0  0  0  0  0  0  0  0  0  0  0  0  0  0  0
++         0  0  0  0  0  0  0  0  0  0  0  0  0  0  0  0  0
++         0  0  0  0  0  0  0  0  0  0  0  0  0  0  0  0  0
++         0  0  0  0  0  0  0  0  0  0  0  0  0  0  0  0  0
++         0  0  0  0  0  0  0  0  0  0  0  0  0  0  0  0  0
++         0  0  0  0  0  0  0  0  0  0  0  0  0  0  0  0  0
%c cc cc ccc ccc cccc cccc cccc cccc ccccc ccccc ccccc ccccc
%c cc cc ccc ccc cccc cccc cccc cccc ccccc ccccc ccccc ccccc
%f  0.0000000  0.000000000  0.00000000000  0.000000000000000
%f  0.0000000  0.000000000  0.00000000000  0.000000000000000
%i    0    0    0    0      0      0      0      0         0
%i    0    0    0    0      0      0      0      0         0
/*      NGA, ST. LOUIS,MO.                                  
/*   EPHEMERIS COMPUTED FROM  3 DAYS OF DATA                
/* CCCCCCCCCCCCCCCCCCCCCCCCCCCCCCCCCCCCCCCCCCCCCCCCCCCCCCCCC
/* CCCCCCCCCCCCCCCCCCCCCCCCCCCCCCCCCCCCCCCCCCCCCCCCCCCCCCCCC
*  2008  5  1  9 45   .00000000                                                 
P  2 -11030.531924 -22446.387559   9279.288437    197.453562                    
V  2  10026.824400   7046.476664  28108.717785       .065809                    
P  3   8941.312396  13854.536038 -21115.670902    222.002370                    
V  3 -25011.092814   8239.353447  -4895.164462       .053020                    
P  4    -12.345190 -19629.969913  17627.892294    -57.682205                    
V  4  16467.918483  15866.521742  17941.083726      -.081834                    
P  5 -15952.097649   1293.241956  20910.020885    762.229345                    
V  5   5655.986974 -26682.631752   6032.585686       .087150                    
P  6  -6550.721642  16506.066885 -19599.067803    115.792465                    
V  6 -24969.079068   4542.022854  12031.540965       .103659                    
P  7  17776.155708   -623.374942 -19770.692440    -54.666339                    
V  7  15641.404210  19568.061670  13399.046554       .103431                    
P  8   8814.316549 -12320.030584 -21846.874780   -151.110739                    
V  8  17470.097536  21293.994622  -5433.544199      -.015787                    
P  9 -20967.073843 -13485.916983   8764.819104    122.490333                    
V  9  -6530.682175 -10272.649108 -29185.176980       .017405                    
P 10  -3605.620017 -21244.517898 -15441.921781     -1.147762                    
V 10   8703.566898 -17565.335287  22653.000517      -.004753                    
P 11  23380.246363   7933.696640  10046.372973     25.981466                    
V 11   7744.790409  11252.403653 -26177.439928      -.003049                    
P 12 -14498.753063  -4582.743985  21868.477094   -359.155995                    
V 12   8826.521613 -26085.968425    477.164147      -.000599                    
P 13  25418.032199  -6531.661034  -4111.727946    253.231826                    
V 13   5254.482869    913.456457  31965.629051       .017970                    
P 14 -14343.102060  14042.860908  17441.133079   -271.567495                    
V 14 -21823.502677   2448.611377 -20122.517799       .040640                    
P 15 -18167.883660  -8637.937589 -17325.332720   -104.738757                    
V 15  21212.875168  -6259.352226 -19092.448983      -.053251                    
P 16   -303.434004  23907.473060 -11274.560656    126.720780                    
V 16  -7229.605783  12804.550390  27357.200769      -.013147                    
P 17  14098.026286 -14726.249408  16977.591123     39.394920                    
V 17  21527.841522  -2109.115741 -19906.516115      -.002779                    
P 18 -16700.913989  13932.790326 -14820.769717   -182.253484                    
V 18   4423.938948 -18974.669863 -22909.206972       .035429                    
P 19  18523.345394   9391.715844 -16572.084352     28.729543                    
V 19 -20746.796724   4470.038660 -20370.701039       .009483                    
P 20  15445.302560   2166.508938  21375.834001    115.326326                    
V 20  -8057.893018  26271.651338   3185.514688      -.008294                    
P 21 -15260.344569   5672.012392 -20888.992137     65.549886                    
V 21 -16887.574287 -20991.602995   5973.487280      -.010613                    
P 22 -11487.956245  23717.657654  -2933.382678    210.851018                    
V 22  -1682.802638  -4861.252299 -31151.401277      -.000108                    
P 23  25178.812618   1137.304518   8687.644443    351.038285                    
V 23 -10437.621305   4183.235087  29231.461659       .022962                    
P 24 -19989.955976  -7751.465784 -15326.136252     90.545613                    
V 24 -10469.231521 -17083.538386  22328.695451       .028488                    
P 25  20814.312595   5147.801184 -15192.928044   -119.697375                    
V 25  13086.500723  15290.030811  22749.571403      -.276678                    
P 26 -14836.198589 -10834.015198 -19870.639639    243.707705                    
V 26  23586.964028  -4030.214435 -15267.299825       .083180                    
P 27  16161.149890  -3357.323644 -20173.079027    185.264754                    
V 27  18383.099304  19909.385623  10913.565815       .026815                    
P 28  12062.646444 -22865.546878  -4868.982748    -18.478389                    
V 28    493.990225   7352.636587 -31213.123317      -.004942                    
P 29 -26114.252442   4757.012207   -155.757540    -43.484750                    
V 29   -840.710505  -2775.315762  31749.692334       .004209                    
P 30 -16467.406159   8789.790507  18521.234581     74.418606                    
V 30   5215.733429 -23791.329033  15744.666091       .017017                    
P 31   2129.521781  20274.413005  17173.330979    -18.386348                    
V 31 -15412.667194 -14983.666514  19944.653496      -.013367                    
P 32   3481.967829  20755.067344  16751.952596    278.235734                    
V 32  -9460.520498  18085.523312 -20814.901286       .058906                    
EOF
